OBJECT_NAME,OBJECT_ID,EPOCH,MEAN_MOTION,ECCENTRICITY,INCLINATION,RA_OF_ASC_NODE,ARG_OF_PERICENTER,MEAN_ANOMALY,EPHEMERIS_TYPE,CLASSIFICATION_TYPE,NORAD_CAT_ID,ELEMENT_SET_NO,REV_AT_EPOCH,BSTAR,MEAN_MOTION_DOT,MEAN_MOTION_DDOT
CUBEBUG-2 (LO-74),2013-066AA,2026-06-03T07:55:56.668800,14.93641817,.00594532,97.8904,103.2522,73.9566,286.8190,0,U,39440,999,67492,.47122985E-3,.5093E-4,0
FUNCUBE-1 (AO-73),2013-066AE,2026-06-04T14:14:41.227008,15.09331350,.0034647,97.8278,126.7780,245.3456,114.4162,0,U,39444,999,67776,.50553E-3,.8112E-4,0
UWE-3,2013-066AG,2026-06-04T15:34:58.249056,14.96922367,.0049326,97.8702,111.6406,3.6109,356.5458,0,U,39446,999,67570,.40572E-3,.4713E-4,0
UNISAT-6,2014-033C,2026-06-03T16:27:54.809856,14.88166007,.0046407,97.7869,307.6374,112.5348,248.0791,0,U,40012,999,64415,.38451616E-3,.3559E-4,0
DUCHIFAT-1,2014-033M,2026-06-04T16:02:21.168384,15.62101054,.0004853,98.0472,213.0954,139.0185,221.1436,0,U,40021,999,65379,.10761E-2,.95076E-3,0
QB50P1,2014-033R,2026-06-03T13:44:21.385536,15.18040602,.00070591,98.0967,164.7661,272.3380,87.7044,0,U,40025,999,65096,.48089613E-3,.9724E-4,0
LILACSAT-2,2015-049K,2026-06-04T21:17:15.613728,15.51024001,.0005377,97.4655,192.2640,304.9654,55.1092,0,U,40908,999,59384,.35383E-3,.20496E-3,0
FOX-1A (AO-85),2015-058D,2026-06-04T16:12:17.033760,14.90903375,.0129787,64.7765,317.8655,61.5039,299.9071,0,U,40967,999,11170,.31024E-3,.3428E-4,0
CAS-2T & KS-1Q,2016-066G,2026-06-04T15:14:10.867200,14.44651724,.0342302,98.3817,231.5141,167.4688,193.5290,0,U,41847,999,50298,.28545E-3,.1982E-4,0
RADFXSAT (FOX-1B),2017-073E,2026-06-04T04:13:37.045344,15.12484658,.0151546,97.4712,22.6585,14.2510,346.2924,0,U,43017,999,46342,.49455E-3,.11345E-3,0
DIWATA-2B,2018-084H,2026-06-04T19:58:38.951328,15.00391997,.0011792,98.1154,351.5061,211.4547,148.5971,0,U,43678,999,41436,.26166E-3,.3226E-4,0
ES'HAIL 2,2018-090A,2026-06-04T17:45:52.801344,1.00272777,.0001949,0.0177,0.9674,105.4242,79.0501,0,U,43700,999,2755,0,.156E-5,0
FOX-1CLIFF (AO-95),2018-099N,2026-06-03T15:21:57.123072,15.26406805,.0009397,97.4392,214.9391,44.7441,315.4554,0,U,43770,999,41115,.50433E-3,.1308E-3,0
ITASAT,2018-099AE,2026-06-04T15:17:20.256000,15.18890618,.0013392,97.4030,207.4001,43.0227,317.2052,0,U,43786,999,41100,.39246E-3,.814E-4,0
JY1SAT (JO-97),2018-099AX,2026-06-04T15:10:18.350112,15.33239560,.0004292,97.4135,218.4269,324.7580,35.3378,0,U,43803,999,41170,.57877E-3,.18538E-3,0
UWE-4,2018-111E,2026-06-03T08:40:07.131360,15.45215882,.00082433,97.5860,82.1246,33.3192,326.8573,0,U,43880,999,40864,.73362008E-3,.349E-3,0
TIANYAN 01,2019-093C,2026-06-04T20:39:57.470976,14.86496517,.0014691,97.7533,228.3934,123.5586,236.7035,0,U,44881,999,34958,.44129E-4,.338E-5,0
RS-44 & BREEZE-KM R/B,2019-096E,2026-06-04T00:38:56.351040,12.79748573,.02175907,82.5219,348.4520,174.8762,185.4640,0,U,44909,999,30066,-.44332679E-4,.1E-7,0
SALSAT,2020-068K,2026-06-03T23:56:12.056928,15.29597840,.00093644,97.8850,157.2614,359.9507,0.1729,0,U,46495,999,31334,.30076162E-3,.8555E-4,0
XW-3 (CAS-9),2021-131B,2026-06-04T20:04:58.228320,14.41345974,.0005055,98.4978,248.2934,125.0726,235.0938,0,U,50466,999,23333,.18718E-3,.562E-5,0
GREENCUBE (IO-117),2022-080E,2026-06-01T11:09:37.753056,6.42583280,.00088692,70.1435,303.7143,293.3663,66.6064,0,U,53109,999,9105,0,-.3E-7,0
UMKA 1 (RS40S),2023-091G,2026-06-04T17:22:04.158336,15.20667787,.0013525,97.5051,214.4699,157.1943,202.9895,0,U,57172,999,16211,.33222E-3,.7244E-4,0
CUBESX-HSE 3 (RS42S),2023-091N,2026-06-04T05:35:49.761312,15.30872052,.00120446,97.5093,220.6597,134.7257,225.4967,0,U,57178,999,16244,.51751371E-3,.15408E-3,0
MONITOR-3 (RS58S),2023-091Q,2026-06-04T03:56:00.938400,15.27565922,.00128634,97.5085,218.5166,141.1958,219.0208,0,U,57180,999,16230,.44640986E-3,.11994E-3,0
MONITOR-4 (RS57S),2023-091S,2026-06-04T03:26:58.295328,15.27663555,.00128048,97.5078,218.4669,141.6583,218.5569,0,U,57182,999,16230,.46321053E-3,.12486E-3,0
MONITOR-2 (RS39S),2023-091U,2026-06-04T04:51:20.171520,15.18783513,.00120658,97.5075,213.5700,151.3600,208.8300,0,U,57184,999,16198,.27231313E-3,.5604E-4,0
SVYATOBOR 1 (RS60S),2023-091X,2026-06-04T05:04:17.058720,15.26383361,.00107125,97.5090,218.9584,133.6184,226.5944,0,U,57187,999,16233,.39089466E-3,.10113E-3,0
VIZARD-METEO (RS38S),2023-091Z,2026-06-04T02:48:12.601728,15.35589021,.0008752,97.5093,224.3441,116.2926,243.9218,0,U,57189,999,16268,.54135836E-3,.18692E-3,0
POLYTECH-UNIVERSE 3 (RS46S),2023-091AB,2026-06-04T05:32:58.161408,15.18984272,.00159396,97.5050,213.1033,168.9055,191.2533,0,U,57191,999,16198,.30837175E-3,.6402E-4,0
UTMN 2 (RS27S),2023-091AP,2026-06-04T17:09:54.633024,15.31732478,.0009464,97.5088,222.7663,120.7007,239.5168,0,U,57203,999,16263,.47735E-3,.14578E-3,0
